NORAD_CAT_ID,OBJECT_NAME,OBJECT_TYPE,EPOCH,MEAN_MOTION,ECCENTRICITY,INCLINATION,RA_OF_ASC_NODE,ARG_OF_PERICENTER,MEAN_ANOMALY,BSTAR,MEAN_MOTION_DOT,MEAN_MOTION_DDOT,TLE_LINE0,TLE_LINE1,TLE_LINE2,SEMIMAJOR_AXIS,PERIOD,APOGEE,PERIGEE,DECAYED
53605.0,STARLINK-4693,PAYLOAD,2024-07-29 10:46:33,15.08841746,0.0001464,53.2177,4.6088,111.9558,248.1589,5.2925e-06,-2.04e-06,0.0,0 STARLINK-4693,1 53605U 22104T   24211.44900434 -.00000204  00000-0  52925-5 0  9991,2 53605  53.2177   4.6088 0001464 111.9558 248.1589 15.08841746106128,6917.875,95.437,540.753,538.727,0.0
53605.0,STARLINK-4693,PAYLOAD,2024-07-29 18:43:29,15.08840246,0.000146,53.2178,3.122,112.6951,247.4196,6.9595e-05,8.2e-06,0.0,0 STARLINK-4693,1 53605U 22104T   24211.78020513  .00000820  00000-0  69595-4 0  9992,2 53605  53.2178   3.1220 0001460 112.6951 247.4196 15.08840246106863,6917.88,95.438,540.755,538.735,0.0
53605.0,STARLINK-4693,PAYLOAD,2024-07-30 10:37:20,15.08847768,0.000285,53.218,0.148,79.4192,280.7121,0.0002148,3.133e-05,0.0,0 STARLINK-4693,1 53605U 22104T   24212.44260243  .00003133  00000-0  21480-3 0  9992,2 53605  53.2180   0.1480 0002850  79.4192 280.7121 15.08847768106271,6917.857,95.437,541.693,537.75,0.0
53605.0,STARLINK-4693,PAYLOAD,2024-07-30 16:58:53,15.08838704,0.000206,53.2186,358.9596,90.7315,269.3913,0.00012038,1.628e-05,0.0,0 STARLINK-4693,1 53605U 22104T   24212.70756920  .00001628  00000-0  12038-3 0  9999,2 53605  53.2186 358.9596 0002060  90.7315 269.3913 15.08838704106312,6917.884,95.438,541.174,538.324,0.0
53605.0,STARLINK-4693,PAYLOAD,2024-07-31 13:38:55,15.08829156,7.87e-05,53.2204,355.0958,93.3768,266.7314,-0.00013705,-2.467e-05,0.0,0 STARLINK-4693,1 53605U 22104T   24213.56870224 -.00002467  00000-0 -13705-3 0  9994,2 53605  53.2204 355.0958 0000787  93.3768 266.7314 15.08829156106449,6917.914,95.438,540.323,539.234,0.0
53605.0,STARLINK-4693,PAYLOAD,2024-07-31 20:00:27,15.0884192,9.26e-05,53.2181,353.9058,104.4131,255.6964,-1.4331e-05,-5.16e-06,0.0,0 STARLINK-4693,1 53605U 22104T   24213.83365192 -.00000516  00000-0 -14331-4 0  9997,2 53605  53.2181 353.9058 0000926 104.4131 255.6964 15.08841920107176,6917.875,95.437,540.38,539.099,0.0
53605.0,STARLINK-4693,PAYLOAD,2024-08-01 02:21:59,15.0885132,0.000111,53.217,352.7186,89.1768,270.9351,6.2112e-05,7.01e-06,0.0,0 STARLINK-4693,1 53605U 22104T   24214.09860420  .00000701  00000-0  62112-4 0  9994,2 53605  53.2170 352.7186 0001110  89.1768 270.9351 15.08851320106527,6917.846,95.437,540.479,538.943,0.0
53605.0,STARLINK-4693,PAYLOAD,2024-08-01 16:40:27,15.08845459,0.0002009,53.2186,350.0419,91.2401,268.8821,0.00014209,1.974e-05,0.0,0 STARLINK-4693,1 53605U 22104T   24214.69476784  .00001974  00000-0  14209-3 0  9992,2 53605  53.2186 350.0419 0002009  91.2401 268.8821 15.08845459106614,6917.864,95.437,541.119,538.339,0.0
53605.0,STARLINK-4693,PAYLOAD,2024-08-02 02:12:45,15.08860481,0.0001731,53.219,348.2578,89.4315,270.6876,0.00018705,2.692e-05,0.0,0 STARLINK-4693,1 53605U 22104T   24215.09219415  .00002692  00000-0  18705-3 0  9996,2 53605  53.2190 348.2578 0001731  89.4315 270.6876 15.08860481106677,6917.818,95.436,540.88,538.485,0.0
53605.0,STARLINK-4693,PAYLOAD,2024-08-02 13:20:30,15.08816859,0.0001708,53.217,346.1769,93.0942,267.0245,-9.4419e-05,-1.789e-05,0.0,0 STARLINK-4693,1 53605U 22104T   24215.55590422 -.00001789  00000-0 -94419-4 0  9992,2 53605  53.2170 346.1769 0001708  93.0942 267.0245 15.08816859106743,6917.951,95.439,540.998,538.635,0.0
53605.0,STARLINK-4693,PAYLOAD,2024-08-02 14:55:53,15.08815232,0.0001494,53.2173,345.8804,94.0081,266.1082,-0.00011873,-2.176e-05,0.0,0 STARLINK-4693,1 53605U 22104T   24215.62214590 -.00002176  00000-0 -11873-3 0  9992,2 53605  53.2173 345.8804 0001494  94.0081 266.1082 15.08815232107440,6917.956,95.439,540.855,538.788,0.0
53605.0,STARLINK-4693,PAYLOAD,2024-08-02 18:06:38,15.08833399,0.0001327,53.217,345.2844,89.4398,270.6746,-1.864e-05,-5.84e-06,0.0,0 STARLINK-4693,1 53605U 22104T   24215.75461735 -.00000584  00000-0 -18640-4 0  9992,2 53605  53.2170 345.2844 0001327  89.4398 270.6746 15.08833399106775,6917.901,95.438,540.684,538.848,0.0
53605.0,STARLINK-4693,PAYLOAD,2024-08-03 02:03:33,15.08860326,0.0001726,53.2176,343.7974,83.2316,276.8873,0.00034244,5.169e-05,0.0,0 STARLINK-4693,1 53605U 22104T   24216.08580437  .00005169  00000-0  34244-3 0  9999,2 53605  53.2176 343.7974 0001726  83.2316 276.8873 15.08860326106828,6917.818,95.436,540.877,538.489,0.0
53605.0,STARLINK-4693,PAYLOAD,2024-08-03 13:11:16,15.08839658,0.0001861,53.2184,341.7139,92.3797,267.7408,4.7354e-05,4.66e-06,0.0,0 STARLINK-4693,1 53605U 22104T   24216.54949402  .00000466  00000-0  47354-4 0  9993,2 53605  53.2184 341.7139 0001861  92.3797 267.7408 15.08839658106896,6917.881,95.438,541.034,538.459,0.0
53605.0,STARLINK-4693,PAYLOAD,2024-08-03 14:46:39,15.08838616,0.0001547,53.218,341.4166,92.2077,267.9092,4.3566e-05,4.05e-06,0.0,0 STARLINK-4693,1 53605U 22104T   24216.61573455  .00000405  00000-0  43566-4 0  9996,2 53605  53.2180 341.4166 0001547  92.2077 267.9092 15.08838616107592,6917.885,95.438,540.82,538.679,0.0
53605.0,STARLINK-4693,PAYLOAD,2024-08-04 01:54:20,15.08852869,0.0001894,53.2201,339.333,101.7,258.4204,0.00035318,5.339e-05,0.0,0 STARLINK-4693,1 53605U 22104T   24217.07940852  .00005339  00000-0  35318-3 0  9992,2 53605  53.2201 339.3330 0001894 101.7000 258.4204 15.08852869106979,6917.841,95.437,541.016,538.396,0.0
53605.0,STARLINK-4693,PAYLOAD,2024-08-04 13:02:03,15.08835058,0.0001711,53.217,337.2562,93.3493,266.7695,0.00019058,2.746e-05,0.0,0 STARLINK-4693,1 53605U 22104T   24217.54309813  .00002746  00000-0  19058-3 0  9992,2 53605  53.2170 337.2562 0001711  93.3493 266.7695 15.08835058107044,6917.895,95.438,540.944,538.577,0.0
53605.0,STARLINK-4693,PAYLOAD,2024-08-04 14:37:26,15.08840728,0.0001761,53.2173,336.9587,98.8853,261.2338,0.00017193,2.449e-05,0.0,0 STARLINK-4693,1 53605U 22104T   24217.60933512  .00002449  00000-0  17193-3 0  9996,2 53605  53.2173 336.9587 0001761  98.8853 261.2338 15.08840728107746,6917.878,95.438,540.961,538.525,0.0
53605.0,STARLINK-4693,PAYLOAD,2024-08-04 17:48:12,15.08854139,0.0001713,53.2177,336.3604,96.2555,263.8633,0.00044061,6.734e-05,0.0,0 STARLINK-4693,1 53605U 22104T   24217.74181131  .00006734  00000-0  44061-3 0  9998,2 53605  53.2177 336.3604 0001713  96.2555 263.8633 15.08854139107075,6917.837,95.437,540.887,538.517,0.0
53605.0,STARLINK-4693,PAYLOAD,2024-08-05 12:52:50,15.0883951,0.0001297,53.2186,332.7926,84.9946,275.1194,0.00010358,1.361e-05,0.0,0 STARLINK-4693,1 53605U 22104T   24218.53669168  .00001361  00000-0  10358-3 0  9990,2 53605  53.2186 332.7926 0001297  84.9946 275.1194 15.08839510107194,6917.882,95.438,540.644,538.85,0.0
53605.0,STARLINK-4693,PAYLOAD,2024-08-05 14:28:13,15.08838829,0.0001328,53.2192,332.497,93.8412,266.2732,0.00025899,3.836e-05,0.0,0 STARLINK-4693,1 53605U 22104T   24218.60293140  .00003836  00000-0  25899-3 0  9996,2 53605  53.2192 332.4970 0001328  93.8412 266.2732 15.08838829107897,6917.884,95.438,540.668,538.83,0.0
53605.0,STARLINK-4693,PAYLOAD,2024-08-06 12:43:38,15.08827486,0.0001005,53.2172,328.3313,79.5797,280.5308,0.00022868,3.352e-05,0.0,0 STARLINK-4693,1 53605U 22104T   24219.53030112  .00003352  00000-0  22868-3 0  9993,2 53605  53.2172 328.3313 0001005  79.5797 280.5308 15.08827486107344,6917.919,95.438,540.479,539.088,0.0
53605.0,STARLINK-4693,PAYLOAD,2024-08-06 14:19:01,15.08827848,0.0001045,53.2171,328.0348,84.6676,275.4436,4.7804e-05,4.73e-06,0.0,0 STARLINK-4693,1 53605U 22104T   24219.59654102  .00000473  00000-0  47804-4 0  9999,2 53605  53.2171 328.0348 0001045  84.6676 275.4436 15.08827848108040,6917.918,95.438,540.505,539.06,0.0
53605.0,STARLINK-4693,PAYLOAD,2024-08-07 12:34:25,15.08846837,0.0001057,53.2183,323.8748,97.8563,262.2549,0.00047442,7.272e-05,0.0,0 STARLINK-4693,1 53605U 22104T   24220.52390070  .00007272  00000-0  47442-3 0  9996,2 53605  53.2183 323.8748 0001057  97.8563 262.2549 15.08846837107490,6917.859,95.437,540.456,538.993,0.0
53605.0,STARLINK-4693,PAYLOAD,2024-08-08 14:00:35,15.08842311,0.0001172,53.2161,319.1134,112.5237,247.5879,0.00037231,5.643e-05,0.0,0 STARLINK-4693,1 53605U 22104T   24221.58373903  .00005643  00000-0  37231-3 0  9994,2 53605  53.2161 319.1134 0001172 112.5237 247.5879 15.08842311108344,6917.873,95.437,540.549,538.928,0.0
53605.0,STARLINK-4693,PAYLOAD,2024-08-09 12:15:59,15.08841514,0.000124,53.2165,314.9529,79.2935,280.8197,-9.7558e-06,-4.43e-06,0.0,0 STARLINK-4693,1 53605U 22104T   24222.51109960 -.00000443  00000-0 -97558-5 0  9993,2 53605  53.2165 314.9529 0001240  79.2935 280.8197 15.08841514107794,6917.876,95.437,540.599,538.883,0.0
53605.0,STARLINK-4693,PAYLOAD,2024-08-09 13:51:21,15.08851475,0.0001437,53.2182,314.6535,92.4222,267.6935,6.7276e-06,-1.81e-06,0.0,0 STARLINK-4693,1 53605U 22104T   24222.57733721 -.00000181  00000-0  67276-5 0  9999,2 53605  53.2182 314.6535 0001437  92.4222 267.6935 15.08851475108499,6917.845,95.437,540.704,538.716,0.0
53605.0,STARLINK-4693,PAYLOAD,2024-08-09 15:26:45,15.08848684,0.0001264,53.2189,314.3583,92.462,267.6517,5.4566e-05,5.81e-06,0.0,0 STARLINK-4693,1 53605U 22104T   24222.64357764  .00000581  00000-0  54566-4 0  9996,2 53605  53.2189 314.3583 0001264  92.4620 267.6517 15.08848684108502,6917.854,95.437,540.593,538.844,0.0
53605.0,STARLINK-4693,PAYLOAD,2024-08-10 13:42:08,15.08845191,0.0001237,53.2177,310.1922,98.152,261.9612,9.408e-05,1.21e-05,0.0,0 STARLINK-4693,1 53605U 22104T   24223.57093538  .00001210  00000-0  94080-4 0  9990,2 53605  53.2177 310.1922 0001237  98.1520 261.9612 15.08845191108640,6917.865,95.437,540.585,538.874,0.0
53605.0,STARLINK-4693,PAYLOAD,2024-08-10 15:17:31,15.0884686,0.0001218,53.2176,309.8943,102.5125,257.6004,9.9416e-05,1.295e-05,0.0,0 STARLINK-4693,1 53605U 22104T   24223.63717373  .00001295  00000-0  99416-4 0  9998,2 53605  53.2176 309.8943 0001218 102.5125 257.6004 15.08846860107962,6917.859,95.437,540.567,538.882,0.0
